ORBCOMM FM103           
1 40091U 14040F   25193.53810517  .00000201  00000+0  79611-4 0  9993
2 40091  47.0050 258.0806 0001245 359.0898   0.9985 14.58196165567808
ORBCOMM FM114           
1 41179U 15081A   25193.28490620  .00000369  00000+0  11569-3 0  9990
2 41179  47.0014 168.3082 0001093  99.6415 260.4594 14.58240299508136
ORBCOMM FM119           
1 41180U 15081B   25193.41110054  .00000282  00000+0  97128-4 0  9997
2 41180  47.0009  77.0306 0000935 193.8640 166.2220 14.58172256509405
ORBCOMM FM105           
1 41181U 15081C   25193.38634486  .00000091  00000+0  70382-4 0  9995
2 41181  47.0018  84.5432 0001319  57.3738 302.7270 14.45235148504399
ORBCOMM FM110           
1 41182U 15081D   25193.34191141  .00000593  00000+0  16448-3 0  9997
2 41182  47.0005 167.5402 0002316 295.7633  64.3013 14.57972285508017
ORBCOMM FM118           
1 41183U 15081E   25193.30878238  .00000546  00000+0  15373-3 0  9997
2 41183  47.0027 167.9745 0003869 274.1348  85.9095 14.58220494508113
